{"fetched_at":"2026-07-10T18:08:30.667Z","source":"https://celestrak.org/NORAD/elements/gp.php?NAME=SENTINEL&FORMAT=JSON","constellation":"sentinel-5p","records":[{"OBJECT_NAME":"SENTINEL-5P","OBJECT_ID":"2017-064A","EPOCH":"2026-07-10T06:01:06.740544","CLASSIFICATION_TYPE":"U","MEAN_MOTION":14.19522784,"ECCENTRICITY":0.00011175,"INCLINATION":98.7929,"RA_OF_ASC_NODE":133.2186,"ARG_OF_PERICENTER":92.4303,"MEAN_ANOMALY":267.7001,"EPHEMERIS_TYPE":0,"NORAD_CAT_ID":42969,"ELEMENT_SET_NO":999,"REV_AT_EPOCH":45283,"BSTAR":0.000024663541,"MEAN_MOTION_DOT":8e-8,"MEAN_MOTION_DDOT":0}]}
