SENTINEL-5P             
1 42969U 17064A   26191.25077246  .00000008  00000+0  24664-4 0  9993
2 42969  98.7929 133.2186 0001117  92.4303 267.7001 14.19522784452839
